*******************************************************************************
JPL/HORIZONS                      (2022 AD)                2025-Sep-17 16:41:17
Rec #:50514322 (+COV) Soln.date: 2023-Jan-26_07:54:45    # obs: 101 (2021-2023)
 
IAU76/J2000 helio. ecliptic osc. elements (au, days, deg., period=Julian yrs):
 
  EPOCH=  2459605.5 ! 2022-Jan-26.00 (TDB)         Residual RMS= .20232
   EC= .05868111003251806  QR= .9287915150262944   TP= 2459766.7224693573
   OM= 109.9515704094282   W=  177.649870549238    IN= 12.84834358302581
   A= .9866916779481391    MA= 197.872216731332    ADIST= 1.044591840869984
   PER= .98012             N= 1.005615309          ANGMOM= .017057805
   DAN= 1.04454            DDN= .92883             L= 287.6602198
   B= .5224618             MOID= .0611941          TP= 2022-Jul-06.2224693573
 
Asteroid physical parameters (km, seconds, rotational period in hours):
   GM= n.a.                RAD= n.a.               ROTPER= n.a.
   H= 24.33                G= .150                 B-V= n.a.
                           ALBEDO= n.a.            STYP= n.a.

ASTEROID comments: 
1: soln ref.= JPL#18, OCC=1
2: source=ORB
*******************************************************************************


*******************************************************************************
Ephemeris / WWW_USER Wed Sep 17 16:41:18 2025 Pasadena, USA      / Horizons    
*******************************************************************************
Target body name: (2022 AD)                       {source: JPL#18}
Center body name: Earth (399)                     {source: DE441}
Center-site name: Cerro Tololo Observatory, La Serena
*******************************************************************************
Start time      : A.D. 2024-Sep-05 00:00:00.0000 UT      
Stop  time      : A.D. 2024-Sep-09 23:00:00.0000 UT      
Step-size       : 45 minutes
*******************************************************************************
Target pole/equ : undefined
Target radii    : undefined                                                    
Center geodetic : 289.1941, -30.1691165, 2.38888  {E-lon(deg),Lat(deg),Alt(km)}
Center cylindric: 289.1941,5520.92438,-3187.79599 {E-lon(deg),Dxy(km),Dz(km)}
Center pole/equ : ITRF93                          {East-longitude positive}
Center radii    : 6378.137, 6378.137, 6356.752 km {Equator_a, b, pole_c}       
Target primary  : Sun
Vis. interferer : MOON (R_eq= 1737.400) km        {source: DE441}
Rel. light bend : Sun                             {source: DE441}
Rel. lght bnd GM: 1.3271E+11 km^3/s^2                                          
Small-body perts: Yes                             {source: SB441-N16}
Atmos refraction: NO (AIRLESS)
RA format       : DEG
Time format     : JD  
Calendar mode   : Mixed Julian/Gregorian
EOP file        : eop.250917.p251213                                           
EOP coverage    : DATA-BASED 1962-JAN-20 TO 2025-SEP-17. PREDICTS-> 2025-DEC-12
Units conversion: 1 au= 149597870.700 km, c= 299792.458 km/s, 1 day= 86400.0 s 
Table cut-offs 1: Elevation (-90.0deg=NO ),Airmass (>38.000=NO), Daylight (NO )
Table cut-offs 2: Solar elongation (  0.0,180.0=NO ),Local Hour Angle( 0.0=NO )
Table cut-offs 3: RA/DEC angular rate (     0.0=NO )                           
Table format    : Comma Separated Values (spreadsheet)
*******************************************************************************
Initial IAU76/J2000 heliocentric ecliptic osculating elements (au, days, deg.):
  EPOCH=  2459605.5 ! 2022-Jan-26.00 (TDB)         Residual RMS= .20232        
   EC= .05868111003251806  QR= .9287915150262944   TP= 2459766.7224693573      
   OM= 109.9515704094282   W=  177.649870549238    IN= 12.84834358302581       
  Equivalent ICRF heliocentric cartesian coordinates (au, au/d):
   X=-5.700923984670121E-01  Y= 7.771165429222631E-01  Z= 3.962851220575707E-01
  VX=-1.311512695201307E-02 VY=-9.790082650227532E-03 VZ=-4.042636435641794E-04
Asteroid physical parameters (km, seconds, rotational period in hours):        
   GM= n.a.                RAD= n.a.               ROTPER= n.a.                
   H= 24.33                G= .150                 B-V= n.a.                   
                           ALBEDO= n.a.            STYP= n.a.                  
***********************************************************************************
Date_________JDUT, , , R.A.___(ICRF), DEC____(ICRF),             delta,     deldot,
***********************************************************************************
$$SOE
2460560.500000000, ,m,  94.473628681,  -0.679039125,  0.53026971946930,  2.4952838,
2460560.531250000, ,m,  94.498894706,  -0.680198782,  0.53031401342321,  2.4138266,
2460560.562500000, ,m,  94.524126519,  -0.681359649,  0.53035686240111,  2.3356411,
2460560.593750000, , ,  94.549295500,  -0.682521695,  0.53039835174652,  2.2636116,
2460560.625000000, , ,  94.574375385,  -0.683684815,  0.53043861688473,  2.2003861,
2460560.656250000, , ,  94.599343280,  -0.684848838,  0.53047783811610,  2.1482738,
2460560.687500000, , ,  94.624180539,  -0.686013529,  0.53051623368339,  2.1091570,
2460560.718750000, , ,  94.648873479,  -0.687178604,  0.53055405137934,  2.0844177,
2460560.750000000, , ,  94.673413911,  -0.688343735,  0.53059155901665,  2.0748852,
2460560.781250000, , ,  94.697799451,  -0.689508567,  0.53062903412653,  2.0808039,
2460560.812500000, , ,  94.722033611,  -0.690672727,  0.53066675328170,  2.1018236,
2460560.843750000, , ,  94.746125668,  -0.691835843,  0.53070498145461,  2.1370130,
2460560.875000000, , ,  94.770090304,  -0.692997556,  0.53074396182034,  2.1848954,
2460560.906250000,A, ,  94.793947043,  -0.694157536,  0.53078390639706,  2.2435057,
2460560.937500000,C, ,  94.817719497,  -0.695315490,  0.53082498788440,  2.3104657,
2460560.968750000,*, ,  94.841434457,  -0.696471180,  0.53086733301475,  2.3830757,
2460561.000000000,*, ,  94.865120864,  -0.697624427,  0.53091101767361,  2.4584184,
2460561.031250000,*, ,  94.888808692,  -0.698775124,  0.53095606397744,  2.5334716,
2460561.062500000,*,m,  94.912527796,  -0.699923232,  0.53100243942177,  2.6052237,
2460561.093750000,*,m,  94.936306761,  -0.701068790,  0.53105005813238,  2.6707905,
2460561.125000000,*,m,  94.960171802,  -0.702211910,  0.53109878417128,  2.7275261,
2460561.156250000,*,m,  94.984145757,  -0.703352773,  0.53114843676998,  2.7731240,
2460561.187500000,*,m,  95.008247209,  -0.704491620,  0.53119879728807,  2.8057071,
2460561.218750000,*,m,  95.032489769,  -0.705628750,  0.53124961762884,  2.8238986,
2460561.250000000,*,m,  95.056881557,  -0.706764501,  0.53130062978726,  2.8268760,
2460561.281250000,*,m,  95.081424891,  -0.707899240,  0.53135155616292,  2.8144019,
2460561.312500000,*,m,  95.106116200,  -0.709033349,  0.53140212024037,  2.7868334,
2460561.343750000,*,m,  95.130946160,  -0.710167213,  0.53145205722604,  2.7451084,
2460561.375000000,*,m,  95.155900060,  -0.711301198,  0.53150112423274,  2.6907089,
2460561.406250000,*,m,  95.180958366,  -0.712435645,  0.53154910962015,  2.6256046,
2460561.437500000,*,m,  95.206097471,  -0.713570851,  0.53159584113262,  2.5521765,
2460561.468750000,N,m,  95.231290612,  -0.714707060,  0.53164119252176,  2.4731259,
2460561.500000000, ,m,  95.256508889,  -0.715844452,  0.53168508839979,  2.3913700,
2460561.531250000, ,m,  95.281722386,  -0.716983140,  0.53172750713738,  2.3099301,
2460561.562500000, ,m,  95.306901313,  -0.718123158,  0.53176848169474,  2.2318152,
2460561.593750000, ,m,  95.332017157,  -0.719264467,  0.53180809835438,  2.1599066,
2460561.625000000, , ,  95.357043777,  -0.720406950,  0.53184649340376,  2.0968470,
2460561.656250000, , ,  95.381958405,  -0.721550423,  0.53188384789538,  2.0449388,
2460561.687500000, , ,  95.406742527,  -0.722694636,  0.53192038068514,  2.0060555,
2460561.718750000, , ,  95.431382590,  -0.723839284,  0.53195634001626,  1.9815699,
2460561.750000000, , ,  95.455870527,  -0.724984021,  0.53199199397184,  1.9723010,
2460561.781250000, , ,  95.480204062,  -0.726128472,  0.53202762016286,  1.9784823,
2460561.812500000, , ,  95.504386805,  -0.727272246,  0.53206349504808,  1.9997528,
2460561.843750000, , ,  95.528428108,  -0.728414952,  0.53209988329647,  2.0351712,
2460561.875000000, , ,  95.552342707,  -0.729556215,  0.53213702760176,  2.0832514,
2460561.906250000,A, ,  95.576150152,  -0.730695691,  0.53217513934132,  2.1420199,
2460561.937500000,C, ,  95.599874060,  -0.731833077,  0.53221439043916,  2.2090919,
2460561.968750000,*, ,  95.623541202,  -0.732968128,  0.53225490674702,  2.2817628,
2460562.000000000,*, ,  95.647180470,  -0.734100662,  0.53229676319864,  2.3571125,
2460562.031250000,*, ,  95.670821770,  -0.735230569,  0.53233998092427,  2.4321176,
2460562.062500000,*,m,  95.694494867,  -0.736357818,  0.53238452643671,  2.5037680,
2460562.093750000,*,m,  95.718228240,  -0.737482454,  0.53243031292046,  2.5691829,
2460562.125000000,*,m,  95.742047985,  -0.738604600,  0.53247720357386,  2.6257214,
2460562.156250000,*,m,  95.765976814,  -0.739724450,  0.53252501687576,  2.6710842,
2460562.187500000,*,m,  95.790033178,  -0.740842264,  0.53257353357310,  2.7034025,
2460562.218750000,*,m,  95.814230561,  -0.741958356,  0.53262250512012,  2.7213093,
2460562.250000000,*,m,  95.838576961,  -0.743073084,  0.53267166324383,  2.7239924,
2460562.281250000,*,m,  95.863074586,  -0.744186836,  0.53272073026720,  2.7112251,
2460562.312500000,*,m,  95.887719768,  -0.745300012,  0.53276942979257,  2.6833753,
2460562.343750000,*,m,  95.912503111,  -0.746413013,  0.53281749733416,  2.6413911,
2460562.375000000,*,m,  95.937409847,  -0.747526223,  0.53286469049075,  2.5867641,
2460562.406250000,*,m,  95.962420413,  -0.748639996,  0.53291079826761,  2.5214719,
2460562.437500000,*,m,  95.987511199,  -0.749754639,  0.53295564918951,  2.4479024,
2460562.468750000,N,m,  96.012655459,  -0.750870402,  0.53299911789345,  2.3687618,
